[{"OBJECT_NAME":"YAOGAN-31 02B","OBJECT_ID":"2021-007B","EPOCH":"2026-03-09T23:16:09.070752","MEAN_MOTION":13.45439674,"ECCENTRICITY":0.01677916,"INCLINATION":63.4048,"RA_OF_ASC_NODE":37.1021,"ARG_OF_PERICENTER":0.2333,"MEAN_ANOMALY":359.8743,"EPHEMERIS_TYPE":0,"CLASSIFICATION_TYPE":"U","NORAD_CAT_ID":47533,"ELEMENT_SET_NO":999,"REV_AT_EPOCH":25088,"BSTAR":0.0002025625,"MEAN_MOTION_DOT":4.1e-7,"MEAN_MOTION_DDOT":0},{"OBJECT_NAME":"QIANFAN-17","OBJECT_ID":"2024-140S","EPOCH":"2026-03-09T21:45:55.584576","MEAN_MOTION":13.51005111,"ECCENTRICITY":0.00138995,"INCLINATION":88.9721,"RA_OF_ASC_NODE":290.4277,"ARG_OF_PERICENTER":320.0969,"MEAN_ANOMALY":39.9159,"EPHEMERIS_TYPE":0,"CLASSIFICATION_TYPE":"U","NORAD_CAT_ID":60395,"ELEMENT_SET_NO":999,"REV_AT_EPOCH":7990,"BSTAR":9.5565521e-5,"MEAN_MOTION_DOT":7.4e-7,"MEAN_MOTION_DDOT":0}]
